OSCAR 7 (AO-7)          
1 07530U 74089B   26166.94772440 -.00000037  00000+0  56046-4 0  9996
2 07530 101.9900 180.1815 0012560 132.4491 296.7122 12.53698099360368
PHASE 3B (AO-10)        
1 14129U 83058B   26166.42721388  .00000161  00000+0  00000+0 0  9993
2 14129  25.9108 219.8563 6011456 115.1838 317.1369  2.05868643295455
UOSAT 2 (UO-11)         
1 14781U 84021B   26166.87896940  .00001005  00000+0  10788-3 0  9990
2 14781  97.8056 132.4683 0007510 176.8387 183.2880 14.90780519256937
LUSAT (LO-19)           
1 20442U 90005G   26166.92612612  .00000094  00000+0  50197-4 0  9994
2 20442  98.8851 188.6970 0011053 204.9676 155.0974 14.34122851902212
EYESAT A (AO-27)        
1 22825U 93061C   26166.74124586  .00000084  00000+0  48773-4 0  9990
2 22825  98.6881 234.1553 0009528 103.4589 256.7656 14.30941896706799
ITAMSAT (IO-26)         
1 22826U 93061D   26166.93079886  .00000085  00000+0  48785-4 0  9998
2 22826  98.6827 234.2621 0010094  88.3244 271.9095 14.31368828707130
RADIO ROSTO (RS15)      
1 23439U 94085A   26166.87433382 -.00000052  00000+0 -28053-3 0  9995
2 23439  64.8179 305.3395 0155912   4.1188 356.0980 11.27583469295756
JAS-2 (FO-29)           
1 24278U 96046B   26166.83242779  .00000013  00000+0  45763-4 0  9993
2 24278  98.5240  15.8902 0350884  99.9379 264.1549 13.53274294472983
TECHSAT 1B (GO-32)      
1 25397U 98043D   26166.94050184  .00000030  00000+0  33055-4 0  9994
2 25397  99.0067 159.6676 0000988 165.9028 194.2178 14.24428159451153
ISS (ZARYA)             
1 25544U 98067A   26166.83490248  .00007214  00000+0  13778-3 0  9991
2 25544  51.6337 306.7860 0004812 190.3373 169.7517 15.49248206571547
PCSAT (NO-44)           
1 26931U 01043C   26166.62271618  .00000084  00000+0  62366-4 0  9991
2 26931  67.0507 248.3182 0006076 264.5919  95.4489 14.31955610290220
SAUDISAT 1C (SO-50)     
1 27607U 02058C   26166.33462240  .00000861  00000+0  11895-3 0  9993
2 27607  64.5510 134.7172 0075306 262.8143  96.4397 14.83043230264184
CUTE-1 (CO-55)          
1 27844U 03031E   26166.98345551  .00000235  00000+0  12048-3 0  9990
2 27844  98.6736 175.5574 0009449 181.4906 178.6246 14.24335068191501
CUBESAT XI-IV (CO-57)   
1 27848U 03031J   26166.76045949  .00000197  00000+0  10563-3 0  9995
2 27848  98.6766 175.0510 0008932 201.3746 158.7060 14.23620108191170
MOZHAETS 4 (RS22)       
1 27939U 03042A   26167.00077797  .00000974  00000+0  15834-3 0  9991
2 27939  98.3461 351.3261 0009956 274.3320 205.1857 14.73466570215373
CUBESAT XI-V            
1 28895U 05043F   26166.90778411  .00001212  00000+0  19838-3 0  9999
2 28895  98.2984 322.5028 0013554 204.9214 155.1340 14.72628612101567
CUTE-1.7+APD II (CO-65) 
1 32785U 08021C   26166.92295673  .00003906  00000+0  24808-3 0  9992
2 32785  97.8271 148.3152 0009930  43.0297 317.1706 15.09442079985009
SEEDS II (CO-66)        
1 32791U 08021J   26166.56872795  .00015199  00000+0  48345-3 0  9994
2 32791  97.7511 164.3889 0001297   9.9046 350.2220 15.32704207987043
YUBILEINY (RS30)        
1 32953U 08025A   26166.89129186  .00000005  00000+0 -36899-4 0  9996
2 32953  82.5039 356.2469 0018909 316.8406  43.1191 12.43179308819534
KKS-1 (KISEKI)          
1 33499U 09002H   26166.90727384  .00001187  00000+0  15247-3 0  9998
2 33499  98.1190  89.3292 0006604 300.8466  59.2097 14.83121349936000
SWISSCUBE               
1 35932U 09051B   26166.73189433  .00000837  00000+0  17488-3 0  9994
2 35932  98.4037  74.5948 0005872 208.1158 151.9727 14.62479266888945
BEESAT-1                
1 35933U 09051C   26166.67211925  .00000696  00000+0  14948-3 0  9991
2 35933  98.3966  74.1727 0004143 222.7954 137.2924 14.61718328888965
ITUPSAT1                
1 35935U 09051E   26166.73019578  .00000641  00000+0  14235-3 0  9999
2 35935  98.4050  73.4251 0006212 239.3695 120.6892 14.60438795888529
XIWANG-1 (HOPE-1)       
1 36122U 09072B   26166.87589806 -.00000473  00000+0 -11213-2 0  9999
2 36122 100.4024 120.7289 0006871 234.8377 125.2093 13.16437301792832
O/OREOS (USA 219)       
1 37224U 10062C   26166.92372863  .00002002  00000+0  19464-3 0  9998
2 37224  71.9714  83.2015 0012521  65.8331 294.4147 14.93740213116457
JUGNU                   
1 37839U 11058B   26166.12908786  .00000399  00000+0  69103-4 0  9990
2 37839  19.9618 320.9329 0018627  53.5996 113.0994 14.13776231758737
SRMSAT                  
1 37841U 11058D   26166.09346315  .00000356  00000+0  49299-4 0  9990
2 37841  19.9720  72.1399 0011838 180.5594 207.7984 14.11575160757521
STRAND-1                
1 39090U 13009E   26166.73319392  .00000220  00000+0  88281-4 0  9996
2 39090  98.3921 347.0034 0007655 230.2280 129.8233 14.37162534696854
ZACUBE-1 (TSHEPISOSAT)  
1 39417U 13066B   26166.94086461  .00002673  00000+0  20978-3 0  9995
2 39417  97.8082 129.2712 0040667 252.0345 107.6443 15.01182960680549
GOMX-1                  
1 39430U 13066Q   26166.96028403  .00002046  00000+0  31070-3 0  9993
2 39430  97.6478   7.5008 0130168  81.4294 280.1638 14.69458242669733
