OBJECT_NAME,OBJECT_ID,EPOCH,MEAN_MOTION,ECCENTRICITY,INCLINATION,RA_OF_ASC_NODE,ARG_OF_PERICENTER,MEAN_ANOMALY,EPHEMERIS_TYPE,CLASSIFICATION_TYPE,NORAD_CAT_ID,ELEMENT_SET_NO,REV_AT_EPOCH,BSTAR,MEAN_MOTION_DOT,MEAN_MOTION_DDOT
OSCAR 7 (AO-7),1974-089B,2026-06-15T22:44:43.388160,12.53698099,.00125607,101.9900,180.1815,132.4491,296.7122,0,U,7530,999,36036,.56045545E-4,-.37E-6,0
PHASE 3B (AO-10),1983-058B,2026-06-15T10:15:11.279232,2.05868643,.60114563,25.9108,219.8563,115.1838,317.1369,0,U,14129,999,29545,0,.161E-5,0
UOSAT 2 (UO-11),1984-021B,2026-06-15T21:05:42.956160,14.90780519,.00075101,97.8056,132.4683,176.8387,183.2880,0,U,14781,999,25693,.1078811E-3,.1005E-4,0
LUSAT (LO-19),1990-005G,2026-06-15T22:13:37.296768,14.34122851,.00110535,98.8851,188.6970,204.9676,155.0974,0,U,20442,999,90221,.50197086E-4,.94E-6,0
EYESAT A (AO-27),1993-061C,2026-06-15T17:47:23.642304,14.30941896,.00095285,98.6881,234.1553,103.4589,256.7656,0,U,22825,999,70679,.48773425E-4,.84E-6,0
ITAMSAT (IO-26),1993-061D,2026-06-15T22:20:21.021504,14.31368828,.00100941,98.6827,234.2621,88.3244,271.9095,0,U,22826,999,70713,.48785269E-4,.85E-6,0
RADIO ROSTO (RS15),1994-085A,2026-06-15T20:59:02.442048,11.27583469,.01559122,64.8179,305.3395,4.1188,356.0980,0,U,23439,999,29575,-.28053295E-3,-.52E-6,0
JAS-2 (FO-29),1996-046B,2026-06-15T19:58:41.761056,13.53274294,.03508846,98.5240,15.8902,99.9379,264.1549,0,U,24278,999,47298,.45763049E-4,.13E-6,0
TECHSAT 1B (GO-32),1998-043D,2026-06-15T22:34:19.358976,14.24428159,.00009888,99.0067,159.6676,165.9028,194.2178,0,U,25397,999,45115,.33054907E-4,.3E-6,0
ISS (ZARYA),1998-067A,2026-06-15T20:02:15.574272,15.49248206,.00048127,51.6337,306.7860,190.3373,169.7517,0,U,25544,999,57154,.13777633E-3,.7214E-4,0
PCSAT (NO-44),2001-043C,2026-06-15T14:56:42.677952,14.31955610,.00060764,67.0507,248.3182,264.5919,95.4489,0,U,26931,999,29022,.62366377E-4,.84E-6,0
SAUDISAT 1C (SO-50),2002-058C,2026-06-15T08:01:51.375360,14.83043230,.00753069,64.5510,134.7172,262.8143,96.4397,0,U,27607,999,26418,.11894541E-3,.861E-5,0
CUTE-1 (CO-55),2003-031E,2026-06-15T23:36:10.556064,14.24335068,.00094493,98.6736,175.5574,181.4906,178.6246,0,U,27844,999,19150,.12047975E-3,.235E-5,0
CUBESAT XI-IV (CO-57),2003-031J,2026-06-15T18:15:03.699936,14.23620108,.00089327,98.6766,175.0510,201.3746,158.7060,0,U,27848,999,19117,.10563155E-3,.197E-5,0
MOZHAETS 4 (RS22),2003-042A,2026-06-16T00:01:07.216608,14.73466570,.00099563,98.3461,351.3261,274.3320,205.1857,0,U,27939,999,21537,.15833512E-3,.974E-5,0
CUBESAT XI-V,2005-043F,2026-06-15T21:47:12.547104,14.72628612,.0013554,98.2984,322.5028,204.9214,155.1340,0,U,28895,999,10156,.19838404E-3,.1212E-4,0
CUTE-1.7+APD II (CO-65),2008-021C,2026-06-15T22:09:03.461472,15.09442079,.00099306,97.8271,148.3152,43.0297,317.1706,0,U,32785,999,98500,.24807953E-3,.3906E-4,0
SEEDS II (CO-66),2008-021J,2026-06-15T13:38:58.094880,15.32704207,.00012974,97.7511,164.3889,9.9046,350.2220,0,U,32791,999,98704,.48345218E-3,.15199E-3,0
YUBILEINY (RS30),2008-025A,2026-06-15T21:23:27.616704,12.43179308,.00189095,82.5039,356.2469,316.8406,43.1191,0,U,32953,999,81953,-.36899129E-4,.5E-7,0
KKS-1 (KISEKI),2009-002H,2026-06-15T21:46:28.459776,14.83121349,.00066041,98.1190,89.3292,300.8466,59.2097,0,U,33499,999,93600,.15247316E-3,.1187E-4,0
SWISSCUBE,2009-051B,2026-06-15T17:33:55.670112,14.62479266,.0005872,98.4037,74.5948,208.1158,151.9727,0,U,35932,999,88894,.17487512E-3,.837E-5,0
BEESAT-1,2009-051C,2026-06-15T16:07:51.103200,14.61718328,.00041439,98.3966,74.1727,222.7954,137.2924,0,U,35933,999,88896,.14948046E-3,.696E-5,0
ITUPSAT1,2009-051E,2026-06-15T17:31:28.915392,14.60438795,.00062121,98.4050,73.4251,239.3695,120.6892,0,U,35935,999,88852,.14235447E-3,.641E-5,0
XIWANG-1 (HOPE-1),2009-072B,2026-06-15T21:01:17.592384,13.16437301,.00068717,100.4024,120.7289,234.8377,125.2093,0,U,36122,999,79283,-.11213069E-2,-.473E-5,0
O/OREOS (USA 219),2010-062C,2026-06-15T22:10:10.153632,14.93740213,.00125217,71.9714,83.2015,65.8331,294.4147,0,U,37224,999,11645,.19463844E-3,.2002E-4,0
JUGNU,2011-058B,2026-06-15T03:05:53.191104,14.13776231,.00186275,19.9618,320.9329,53.5996,113.0994,0,U,37839,999,75873,.69103196E-4,.399E-5,0
SRMSAT,2011-058D,2026-06-15T02:14:35.216160,14.11575160,.00118389,19.9720,72.1399,180.5594,207.7984,0,U,37841,999,75752,.49298812E-4,.356E-5,0
STRAND-1,2013-009E,2026-06-15T17:35:47.954688,14.37162534,.00076552,98.3921,347.0034,230.2280,129.8233,0,U,39090,999,69685,.8828084E-4,.22E-5,0
ZACUBE-1 (TSHEPISOSAT),2013-066B,2026-06-15T22:34:50.702304,15.01182960,.00406678,97.8082,129.2712,252.0345,107.6443,0,U,39417,999,68054,.20977576E-3,.2673E-4,0
GOMX-1,2013-066Q,2026-06-15T23:02:48.540192,14.69458242,.01301684,97.6478,7.5008,81.4294,280.1638,0,U,39430,999,66973,.31069802E-3,.2046E-4,0
